From: horizons@ssd.jpl.nasa.gov (Horizons Ephemeris System)
Subject: [Horizons] SMALL BODY #C(500@10)_T(104P/Kowal 2) (1/1)
Date: March 1, 2021 at 1:22:54 PM PST

Automated mail xmit by MAIL_REQUEST, PID= 2301 Mon Mar  1 13:22:54 2021
++++++++++++++++++++++++++++++++ (part 1 of 1)  +++++++++++++++++++++++++++++++
*******************************************************************************
JPL/HORIZONS                    104P/Kowal 2               2021-Mar-01 13:22:54
Rec #:90000934 (+COV) Soln.date: 2016-Aug-16_17:08:46    # obs: 133 (2003-2016)

IAU76/J2000 helio. ecliptic osc. elements (au, days, deg., period=Julian yrs):

 EPOCH=  2457600.5 ! 2016-Jul-31.0000000 (TDB)    RMSW= n.a.
  EC= .6386695859566606   QR= 1.179122444061068   TP= 2457475.6515717469
  OM= 235.4207637354207   W= 200.6739477005111    IN= 10.25426992139334
  A= 3.263280361225389    MA= 20.87399485946392   ADIST= 5.34743827838971
  PER= 5.8950812518699    N= .16719469            ANGMOM= .023911487
  DAN= 4.80098            DDN= 1.20948            L= 75.7918301
  B= -3.6033447           MOID= .20043001         TP= 2016-Mar-28.1515717469

Comet physical (GM= km^3/s^2; RAD= km):
  GM= n.a.                RAD= 1.
  M1=  13.4     M2=  n.a.     k1=  16.    k2= n.a.     PHCOF= n.a.

Comet non-gravitational force model (AMRAT=m^2/kg;A1-A3=au/d^2;DT=days;R0=au):
  AMRAT=  0.                                      DT=  61.95449
  A1= 2.200273275375E-8   A2= -1.057375594974E-10 A3= 4.296959340572E-9
Standard model:
  ALN=  .1112620426   NK=  4.6142   NM=  2.15     NN=  5.093    R0=  2.808

COMET comments 
1: soln ref.= JPL#K163/6, data arc: 2003-08-31 to 2016-06-28
2: k1=16.;
*******************************************************************************


*******************************************************************************
Ephemeris / MAIL_REQUEST Mon Mar  1 13:22:54 2021 Pasadena, USA  / Horizons
*******************************************************************************
Target body name: 104P/Kowal 2                    {source: JPL#K163/6}
Center body name: Sun (10)                        {source: DE431}
Center-site name: BODY CENTER
*******************************************************************************
Start time      : A.D. 1990-Jan-01 00:00:00.0000 TDB
Stop  time      : A.D. 2020-Dec-31 00:00:00.0000 TDB
Step-size       : 10080 minutes
*******************************************************************************
Center geodetic : 0.00000000,0.00000000,0.0000000 {E-lon(deg),Lat(deg),Alt(km)}
Center cylindric: 0.00000000,0.00000000,0.0000000 {E-lon(deg),Dxy(km),Dz(km)}
Center radii    : 696000.0 x 696000.0 x 696000.0 k{Equator, meridian, pole}    
Small perturbers: Yes                             {source: SB431-N16}
Output units    : AU-D
Output type     : GEOMETRIC cartesian states
Output format   : 6 (LT, range, and range-rate)
Reference frame : Ecliptic of J2000.0
*******************************************************************************
Initial IAU76/J2000 heliocentric ecliptic osculating elements (au, days, deg.):
 EPOCH=  2457600.5 ! 2016-Jul-31.0000000 (TDB)    RMSW= n.a.                  
  EC= .6386695859566606   QR= 1.179122444061068   TP= 2457475.6515717469      
  OM= 235.4207637354207   W= 200.6739477005111    IN= 10.25426992139334       
 Equivalent ICRF heliocentric equatorial cartesian coordinates (au, au/d):
  X=-1.768623178776877E+00  Y= 6.076559374928755E-01  Z=-8.239640852653489E-02
 VX=-1.120046474583766E-02 VY=-8.901210015272195E-03 VZ=-4.560557864782359E-03
Comet physical (GM= km^3/s^2; RAD= km):                                        
  GM= n.a.                RAD= 1.                                             
  M1=  13.4     M2=  n.a.     k1=  16.    k2= n.a.     PHCOF= n.a.            
Comet non-gravitational force model (AMRAT=m^2/kg;A1-A3=au/d^2;DT=days;R0=au): 
  AMRAT=  0.                                      DT=  61.95449               
  A1= 2.200273275375E-8   A2= -1.057375594974E-10 A3= 4.296959340572E-9       
Standard model:                                                               
  ALN=  .1112620426   NK=  4.6142   NM=  2.15     NN=  5.093    R0=  2.808    
*******************************************************************************
           JDTDB,            Calendar Date (TDB),                     LT,                     RG,                     RR,
**************************************************************************************************************************
$$SOE
2457132.500000000, A.D. 2015-Apr-20 00:00:00.0000,  1.966097742569874E-02,  3.404192714389139E+00, -5.816309596240616E-03,
2457139.500000000, A.D. 2015-Apr-27 00:00:00.0000,  1.942426611982938E-02,  3.363207422284550E+00, -5.893878709719831E-03,
2457146.500000000, A.D. 2015-May-04 00:00:00.0000,  1.918440617456028E-02,  3.321676960167669E+00, -5.972070023431833E-03,
2457153.500000000, A.D. 2015-May-11 00:00:00.0000,  1.894137277348159E-02,  3.279597031210327E+00, -6.050865735636964E-03,
2457160.500000000, A.D. 2015-May-18 00:00:00.0000,  1.869514194708426E-02,  3.236963485220688E+00, -6.130241808948948E-03,
2457167.500000000, A.D. 2015-May-25 00:00:00.0000,  1.844569082139914E-02,  3.193772361693760E+00, -6.210168020510873E-03,
2457174.500000000, A.D. 2015-Jun-01 00:00:00.0000,  1.819299788085802E-02,  3.150019935324396E+00, -6.290607224970617E-03,
2457181.500000000, A.D. 2015-Jun-08 00:00:00.0000,  1.793704327045778E-02,  3.105702768325367E+00, -6.371514209962185E-03,
2457188.500000000, A.D. 2015-Jun-15 00:00:00.0000,  1.767780914863435E-02,  3.060817771525620E+00, -6.452834340655740E-03,
2457195.500000000, A.D. 2015-Jun-22 00:00:00.0000,  1.741528009919501E-02,  3.015362275694128E+00, -6.534501984878344E-03,
2457202.500000000, A.D. 2015-Jun-29 00:00:00.0000,  1.714944361262304E-02,  2.969334114875214E+00, -6.616438637333617E-03,
2457209.500000000, A.D. 2015-Jul-06 00:00:00.0000,  1.688029065170574E-02,  2.922731724324004E+00, -6.698550594988811E-03,
2457216.500000000, A.D. 2015-Jul-13 00:00:00.0000,  1.660781632160738E-02,  2.875554256525964E+00, -6.780726162768294E-03,
2457223.500000000, A.D. 2015-Jul-20 00:00:00.0000,  1.633202064698895E-02,  2.827801715751012E+00, -6.862833444668654E-03,
2457230.500000000, A.D. 2015-Jul-27 00:00:00.0000,  1.605290941421348E-02,  2.779475103876848E+00, -6.944718871527733E-03,
2457237.500000000, A.D. 2015-Aug-03 00:00:00.0000,  1.577049513776382E-02,  2.730576587719010E+00, -7.026201953453102E-03,
2457244.500000000, A.D. 2015-Aug-10 00:00:00.0000,  1.548479828888957E-02,  2.681109711764489E+00, -7.107068656839926E-03,
2457251.500000000, A.D. 2015-Aug-17 00:00:00.0000,  1.519584875352449E-02,  2.631079650602311E+00, -7.187066421659500E-03,
2457258.500000000, A.D. 2015-Aug-24 00:00:00.0000,  1.490368750443989E-02,  2.580493498447910E+00, -7.265898203499589E-03,
2457265.500000000, A.D. 2015-Aug-31 00:00:00.0000,  1.460836854884124E-02,  2.529360606359042E+00, -7.343214830613696E-03,
2457272.500000000, A.D. 2015-Sep-07 00:00:00.0000,  1.430996121667916E-02,  2.477692978444538E+00, -7.418605788270731E-03,
2457279.500000000, A.D. 2015-Sep-14 00:00:00.0000,  1.400855285560347E-02,  2.425505738481144E+00, -7.491588273698046E-03,
2457286.500000000, A.D. 2015-Sep-21 00:00:00.0000,  1.370425200867195E-02,  2.372817680116725E+00, -7.561594195775659E-03,
2457293.500000000, A.D. 2015-Sep-28 00:00:00.0000,  1.339719216641488E-02,  2.319651916520115E+00, -7.627954676518400E-03,
2457300.500000000, A.D. 2015-Oct-05 00:00:00.0000,  1.308753620570777E-02,  2.266036648948092E+00, -7.689881467316226E-03,
2457307.500000000, A.D. 2015-Oct-12 00:00:00.0000,  1.277548164987829E-02,  2.212006077504676E+00, -7.746444942660313E-03,
2457314.500000000, A.D. 2015-Oct-19 00:00:00.0000,  1.246126687150766E-02,  2.157601475122873E+00, -7.796549688472143E-03,
2457321.500000000, A.D. 2015-Oct-26 00:00:00.0000,  1.214517834629863E-02,  2.102872443533014E+00, -7.838906019830495E-03,
2457328.500000000, A.D. 2015-Nov-02 00:00:00.0000,  1.182755923008074E-02,  2.047878398325152E+00, -7.871992905044332E-03,
2457335.500000000, A.D. 2015-Nov-09 00:00:00.0000,  1.150881955217908E-02,  1.992690333876163E+00, -7.894015861345185E-03,
2457342.500000000, A.D. 2015-Nov-16 00:00:00.0000,  1.118944819071165E-02,  1.937392896808211E+00, -7.902860468306924E-03,
2457349.500000000, A.D. 2015-Nov-23 00:00:00.0000,  1.087002685403701E-02,  1.882086806801365E+00, -7.896039499282619E-03,
2457356.500000000, A.D. 2015-Nov-30 00:00:00.0000,  1.055124632373313E-02,  1.826891668978201E+00, -7.870634126355821E-03,
2457363.500000000, A.D. 2015-Dec-07 00:00:00.0000,  1.023392516529165E-02,  1.771949213560087E+00, -7.823231051590329E-03,
2457370.500000000, A.D. 2015-Dec-14 00:00:00.0000,  9.919031008808615E-03,  1.717426980504567E+00, -7.749858989084535E-03,
2457377.500000000, A.D. 2015-Dec-21 00:00:00.0000,  9.607704315238391E-03,  1.663522434504665E+00, -7.645930499894775E-03,
2457384.500000000, A.D. 2015-Dec-28 00:00:00.0000,  9.301284228462431E-03,  1.610467441135833E+00, -7.506198999654451E-03,
2457391.500000000, A.D. 2016-Jan-04 00:00:00.0000,  9.001335615096978E-03,  1.558532948653524E+00, -7.324746047938773E-03,
2457398.500000000, A.D. 2016-Jan-11 00:00:00.0000,  8.709675640306246E-03,  1.508033589452604E+00, -7.095021617383446E-03,
2457405.500000000, A.D. 2016-Jan-18 00:00:00.0000,  8.428397106038803E-03,  1.459331720957719E+00, -6.809970168183236E-03,
2457412.500000000, A.D. 2016-Jan-25 00:00:00.0000,  8.159884328315875E-03,  1.412840174690543E+00, -6.462279847728972E-03,
2457419.500000000, A.D. 2016-Feb-01 00:00:00.0000,  7.906815780916527E-03,  1.369022714009679E+00, -6.044795538272907E-03,
2457426.500000000, A.D. 2016-Feb-08 00:00:00.0000,  7.672145973830441E-03,  1.328390896462024E+00, -5.551139074546219E-03,
2457433.500000000, A.D. 2016-Feb-15 00:00:00.0000,  7.459057696206891E-03,  1.291495804905707E+00, -4.976554664517061E-03,
